     3.02           N: GNSS NAV DATA    M: Mixed            RINEX VERSION / TYPE
GNSS-SDRLIB v1.1                        20210507 070111 UTC PGM / RUN BY / DATE 
                                                            END OF HEADER       
G 6 2014  7  3 12  0  0  .294856727123E-05 -.261479726760E-11  .000000000000E+00
      .720000000000E+02 -.392187500000E+02  .419946063868E-08 -.113426245993E+01
     -.194460153580E-05  .353470095433E-03  .103954225779E-04  .515354696465E+04
      .388800000000E+06 -.931322574615E-08 -.233164856956E+01  .298023223877E-07
      .960995988929E+00  .177468750000E+03  .227016951482E+01 -.785818446778E-08
      .750031241812E-11  .100000000000E+01  .179900000000E+04  .000000000000E+00
      .240000000000E+01  .000000000000E+00  .605359673500E-08  .720000000000E+02
      .382296000000E+06  .000000000000E+00
G 4 2014  7  3 12  0  0  .735232606530E-05  .000000000000E+00  .000000000000E+00
      .740000000000E+02 -.380000000000E+02  .481484341470E-08  .409803180485E+00
     -.181794166565E-05  .107446776237E-01  .101234763861E-04  .515196310616E+04
      .388800000000E+06 -.182539224625E-06 -.233754806467E+01  .104308128357E-06
      .938623102905E+00  .174781250000E+03  .104610542336E+01 -.830248868912E-08
     -.664313385605E-10  .100000000000E+01  .179900000000E+04  .000000000000E+00
      .240000000000E+01  .000000000000E+00 -.651925802231E-08  .740000000000E+02
      .382296000000E+06  .000000000000E+00
